QZS-1-(MICHIBIKI-1)-----
1 37158U 10045A   23023.72658353 -.00000195  00000+0  00000+0 0  9997
2 37158  42.5725 130.3555 0762089 270.5385 118.3500  1.00249920 45289
QZS-2-(MICHIBIKI-2)-----
1 42738U 17028A   23022.53174661 -.00000116  00000+0  00000+0 0  9991
2 42738  41.4078 261.0613 0752582 269.8267 283.5289  1.00276283 20680
QZS-3-(MICHIBIKI-3)-----
1 42917U 17048A   23024.20325310 -.00000353  00000+0  00000+0 0  9990
2 42917   0.0800 233.2425 0001673  87.0419   3.1194  1.00275040 19939
QZS-4-(MICHIBIKI-4)-----
1 42965U 17062A   23023.67732824 -.00000333  00000+0  00000+0 0  9999
2 42965  40.7103 359.2892 0750091 268.8165 235.7256  1.00294615 19366
QZS-1R------------------
1 49336U 21096A   23023.72323150 -.00000289  00000+0  00000+0 0  9994
2 49336  34.9045  98.3814 0759141 271.8641 145.2587  1.00247497  4573
